STARLINK-2746
1 28676C 21044AQ  21325.18994792  .00001382  00000-0  92589-4 0  3258
2 28676  53.0548 317.3661 0001576  63.6731  40.7863 15.06389097    17
